NORAD_CAT_ID,OBJECT_NAME,OBJECT_TYPE,EPOCH,MEAN_MOTION,ECCENTRICITY,INCLINATION,RA_OF_ASC_NODE,ARG_OF_PERICENTER,MEAN_ANOMALY,BSTAR,MEAN_MOTION_DOT,MEAN_MOTION_DDOT,TLE_LINE0,TLE_LINE1,TLE_LINE2,SEMIMAJOR_AXIS,PERIOD,APOGEE,PERIGEE,DECAYED
55640.0,STARLINK-5069,PAYLOAD,2024-07-23 12:49:26,14.98338979,0.0003329,69.9989,242.4938,263.9794,96.0986,-0.00010489,-1.345e-05,0.0,0 STARLINK-5069,1 55640U 23021N   24205.53433867 -.00001345  00000-0 -10489-3 0  9990,2 55640  69.9989 242.4938 0003329 263.9794  96.0986 14.98338979 79499,6950.165,96.106,574.344,569.716,0.0
55640.0,STARLINK-5069,PAYLOAD,2024-07-24 04:50:48,14.9832211,0.0003462,69.9984,240.8092,269.5676,90.5086,8.3839e-05,9.07e-06,0.0,0 STARLINK-5069,1 55640U 23021N   24206.20194447  .00000907  00000-0  83839-4 0  9994,2 55640  69.9984 240.8092 0003462 269.5676  90.5086 14.98322110 79597,6950.217,96.108,574.488,569.676,0.0
55640.0,STARLINK-5069,PAYLOAD,2024-07-24 09:39:12,14.9832101,0.0003473,69.9985,240.3043,269.3175,90.7586,6.8597e-05,7.25e-06,0.0,0 STARLINK-5069,1 55640U 23021N   24206.40222672  .00000725  00000-0  68597-4 0  9990,2 55640  69.9985 240.3043 0003473 269.3175  90.7586 14.98321010 79925,6950.221,96.108,574.5,569.672,0.0
55640.0,STARLINK-5069,PAYLOAD,2024-07-25 04:52:48,14.98332305,0.0003492,69.9985,238.2843,269.3934,90.6825,5.8154e-05,6.01e-06,0.0,0 STARLINK-5069,1 55640U 23021N   24207.20334125  .00000601  00000-0  58154-4 0  9997,2 55640  69.9985 238.2843 0003492 269.3934  90.6825 14.98332305 79747,6950.186,96.107,574.478,569.624,0.0
55640.0,STARLINK-5069,PAYLOAD,2024-07-25 06:28:56,14.9833231,0.0003494,69.9985,238.116,269.3942,90.6817,5.7911e-05,5.98e-06,0.0,0 STARLINK-5069,1 55640U 23021N   24207.27010120  .00000598  00000-0  57911-4 0  9995,2 55640  69.9985 238.1160 0003494 269.3942  90.6817 14.98332310 80052,6950.186,96.107,574.479,569.622,0.0
55640.0,STARLINK-5069,PAYLOAD,2024-07-25 09:41:12,14.98332293,0.000347,69.9986,237.7795,268.864,91.2121,5.8327e-05,6.03e-06,0.0,0 STARLINK-5069,1 55640U 23021N   24207.40362108  .00000603  00000-0  58327-4 0  9995,2 55640  69.9986 237.7795 0003470 268.8640  91.2121 14.98332293 80072,6950.186,96.107,574.463,569.639,0.0
55640.0,STARLINK-5069,PAYLOAD,2024-07-26 04:54:49,14.98328101,0.0003531,69.9985,235.7594,266.5052,93.5703,5.4505e-05,5.57e-06,0.0,0 STARLINK-5069,1 55640U 23021N   24208.20474297  .00000557  00000-0  54505-4 0  9999,2 55640  69.9985 235.7594 0003531 266.5052  93.5703 14.98328101 79898,6950.199,96.107,574.518,569.61,0.0
55640.0,STARLINK-5069,PAYLOAD,2024-07-26 09:43:14,14.98327766,0.000356,69.9984,235.2542,270.9012,89.1739,5.1137e-05,5.17e-06,0.0,0 STARLINK-5069,1 55640U 23021N   24208.40502379  .00000517  00000-0  51137-4 0  9998,2 55640  69.9984 235.2542 0003560 270.9012  89.1739 14.98327766 80227,6950.2,96.107,574.539,569.591,0.0
55640.0,STARLINK-5069,PAYLOAD,2024-07-26 19:20:02,14.98330558,0.0003581,69.9983,234.2438,271.3573,88.7175,2.4268e-05,1.96e-06,0.0,0 STARLINK-5069,1 55640U 23021N   24208.80558271  .00000196  00000-0  24268-4 0  9992,2 55640  69.9983 234.2438 0003581 271.3573  88.7175 14.98330558 80287,6950.191,96.107,574.545,569.567,0.0
55640.0,STARLINK-5069,PAYLOAD,2024-07-27 04:56:50,14.9833341,0.0003601,69.9982,233.2338,271.154,88.9207,1.3975e-05,7.4e-07,0.0,0 STARLINK-5069,1 55640U 23021N   24209.20614061  .00000074  00000-0  13975-4 0  9995,2 55640  69.9982 233.2338 0003601 271.1540  88.9207 14.98333410 80041,6950.182,96.107,574.55,569.545,0.0
55640.0,STARLINK-5069,PAYLOAD,2024-07-27 06:32:58,14.98333321,0.0003601,69.9982,233.0654,271.127,88.9477,1.3119e-05,6.3e-07,0.0,0 STARLINK-5069,1 55640U 23021N   24209.27290055  .00000063  00000-0  13119-4 0  9993,2 55640  69.9982 233.0654 0003601 271.1270  88.9477 14.98333321 80354,6950.183,96.107,574.55,569.545,0.0
55640.0,STARLINK-5069,PAYLOAD,2024-07-27 11:21:22,14.98333812,0.0003644,69.998,232.5602,270.6202,89.454,1.7545e-05,1.16e-06,0.0,0 STARLINK-5069,1 55640U 23021N   24209.47317935  .00000116  00000-0  17545-4 0  9998,2 55640  69.9980 232.5602 0003644 270.6202  89.4540 14.98333812 80380,6950.181,96.107,574.579,569.513,0.0
55640.0,STARLINK-5069,PAYLOAD,2024-07-28 04:58:51,14.98329053,0.0003652,69.9978,230.7084,270.1871,89.8869,4.0918e-05,3.95e-06,0.0,0 STARLINK-5069,1 55640U 23021N   24210.20754122  .00000395  00000-0  40918-4 0  9993,2 55640  69.9978 230.7084 0003652 270.1871  89.8869 14.98329053 80196,6950.196,96.107,574.599,569.523,0.0
55640.0,STARLINK-5069,PAYLOAD,2024-07-28 11:23:23,14.98330027,0.0003668,69.9978,230.0351,270.1682,89.9057,2.9661e-05,2.61e-06,0.0,0 STARLINK-5069,1 55640U 23021N   24210.47458093  .00000261  00000-0  29661-4 0  9994,2 55640  69.9978 230.0351 0003668 270.1682  89.9057 14.98330027 80534,6950.193,96.107,574.607,569.508,0.0
55640.0,STARLINK-5069,PAYLOAD,2024-07-29 05:00:52,14.98333114,0.0003657,69.9978,228.1833,269.86,90.214,3.3479e-05,3.06e-06,0.0,0 STARLINK-5069,1 55640U 23021N   24211.20893843  .00000306  00000-0  33479-4 0  9994,2 55640  69.9978 228.1833 0003657 269.8600  90.2140 14.98333114 80347,6950.183,96.107,574.59,569.507,0.0
55640.0,STARLINK-5069,PAYLOAD,2024-07-29 11:25:24,14.98334419,0.0003651,69.998,227.5102,269.7675,90.3066,3.667e-05,3.45e-06,0.0,0 STARLINK-5069,1 55640U 23021N   24211.47597719  .00000345  00000-0  36670-4 0  9995,2 55640  69.9980 227.5102 0003651 269.7675  90.3066 14.98334419 80681,6950.179,96.107,574.582,569.507,0.0
55640.0,STARLINK-5069,PAYLOAD,2024-07-30 05:02:53,14.98330687,0.0003639,69.998,225.6587,268.8943,91.1799,3.9999e-05,3.84e-06,0.0,0 STARLINK-5069,1 55640U 23021N   24212.21033849  .00000384  00000-0  39999-4 0  9997,2 55640  69.9980 225.6587 0003639 268.8943  91.1799 14.98330687 80495,6950.191,96.107,574.585,569.527,0.0
55640.0,STARLINK-5069,PAYLOAD,2024-07-30 11:27:25,14.9833235,0.0003647,69.998,224.9853,269.0762,90.998,5.5311e-05,5.67e-06,0.0,0 STARLINK-5069,1 55640U 23021N   24212.47737700  .00000567  00000-0  55311-4 0  9991,2 55640  69.9980 224.9853 0003647 269.0762  90.9980 14.98332350 80830,6950.186,96.107,574.585,569.516,0.0
55640.0,STARLINK-5069,PAYLOAD,2024-07-30 17:51:57,14.98331168,0.0003651,69.998,224.3116,270.7333,89.3408,2.6231e-05,2.2e-06,0.0,0 STARLINK-5069,1 55640U 23021N   24212.74441837  .00000220  00000-0  26231-4 0  9999,2 55640  69.9980 224.3116 0003651 270.7333  89.3408 14.98331168 80871,6950.189,96.107,574.592,569.517,0.0
55640.0,STARLINK-5069,PAYLOAD,2024-07-31 05:04:54,14.98330995,0.0003611,69.9981,223.1337,268.6719,91.4026,5.5304e-06,-2.7e-07,0.0,0 STARLINK-5069,1 55640U 23021N   24213.21173889 -.00000027  00000-0  55304-5 0  9991,2 55640  69.9981 223.1337 0003611 268.6719  91.4026 14.98330995 80646,6950.19,96.107,574.565,569.545,0.0
55640.0,STARLINK-5069,PAYLOAD,2024-07-31 09:53:18,14.98330692,0.0003615,69.9981,222.6287,268.6496,91.4249,1.8951e-06,-7.1e-07,0.0,0 STARLINK-5069,1 55640U 23021N   24213.41201906 -.00000071  00000-0  18951-5 0  9991,2 55640  69.9981 222.6287 0003615 268.6496  91.4249 14.98330692 80977,6950.191,96.107,574.568,569.543,0.0
55640.0,STARLINK-5069,PAYLOAD,2024-07-31 17:53:58,14.98330174,0.0003631,69.9981,221.7868,269.7593,90.315,9.1035e-06,1.6e-07,0.0,0 STARLINK-5069,1 55640U 23021N   24213.74581907  .00000016  00000-0  91035-5 0  9991,2 55640  69.9981 221.7868 0003631 269.7593  90.3150 14.98330174 81021,6950.192,96.107,574.581,569.534,0.0
55640.0,STARLINK-5069,PAYLOAD,2024-08-01 05:06:55,14.98329984,0.0003628,69.998,220.6083,269.642,90.4323,2.7397e-05,2.34e-06,0.0,0 STARLINK-5069,1 55640U 23021N   24214.21313878  .00000234  00000-0  27397-4 0  9995,2 55640  69.9980 220.6083 0003628 269.6420  90.4323 14.98329984 80794,6950.193,96.107,574.579,569.536,0.0
55640.0,STARLINK-5069,PAYLOAD,2024-08-01 09:55:19,14.98330942,0.0003621,69.998,220.1035,269.1905,90.8839,3.5681e-05,3.33e-06,0.0,0 STARLINK-5069,1 55640U 23021N   24214.41341787  .00000333  00000-0  35681-4 0  9992,2 55640  69.9980 220.1035 0003621 269.1905  90.8839 14.98330942 81122,6950.19,96.107,574.572,569.538,0.0
55640.0,STARLINK-5069,PAYLOAD,2024-08-02 05:08:55,14.98331081,0.000369,69.9979,218.0834,269.4722,90.6014,6.2304e-05,6.5e-06,0.0,0 STARLINK-5069,1 55640U 23021N   24215.21453667  .00000650  00000-0  62304-4 0  9996,2 55640  69.9979 218.0834 0003690 269.4722  90.6014 14.98331081 80946,6950.19,96.107,574.619,569.49,0.0
55640.0,STARLINK-5069,PAYLOAD,2024-08-02 09:57:20,14.98333147,0.0003688,69.998,217.5785,269.5553,90.5183,7.4847e-05,8e-06,0.0,0 STARLINK-5069,1 55640U 23021N   24215.41481486  .00000800  00000-0  74847-4 0  9990,2 55640  69.9980 217.5785 0003688 269.5553  90.5183 14.98333147 81275,6950.183,96.107,574.611,569.485,0.0
55640.0,STARLINK-5069,PAYLOAD,2024-08-02 17:58:00,14.983311,0.0003684,69.998,216.7367,269.5442,90.5295,4.4749e-05,4.41e-06,0.0,0 STARLINK-5069,1 55640U 23021N   24215.74861664  .00000441  00000-0  44749-4 0  9995,2 55640  69.9980 216.7367 0003684 269.5442  90.5295 14.98331100 81322,6950.189,96.107,574.615,569.494,0.0
55640.0,STARLINK-5069,PAYLOAD,2024-08-03 05:10:56,14.98330129,0.0003631,69.9984,215.5584,269.5968,90.4775,2.9858e-05,2.63e-06,0.0,0 STARLINK-5069,1 55640U 23021N   24216.21593731  .00000263  00000-0  29858-4 0  9991,2 55640  69.9984 215.5584 0003631 269.5968  90.4775 14.98330129 81095,6950.192,96.107,574.581,569.534,0.0
55640.0,STARLINK-5069,PAYLOAD,2024-08-03 09:59:21,14.98330169,0.0003568,69.9983,215.0536,267.8895,92.1855,6.6325e-05,6.98e-06,0.0,0 STARLINK-5069,1 55640U 23021N   24216.41621630  .00000698  00000-0  66325-4 0  9995,2 55640  69.9983 215.0536 0003568 267.8895  92.1855 14.98330169 81424,6950.192,96.107,574.537,569.578,0.0
55640.0,STARLINK-5069,PAYLOAD,2024-08-04 05:12:57,14.98331475,0.0003661,69.9984,213.0337,269.4655,90.6085,5.3193e-06,-3e-07,0.0,0 STARLINK-5069,1 55640U 23021N   24217.21733627 -.00000030  00000-0  53193-5 0  9995,2 55640  69.9984 213.0337 0003661 269.4655  90.6085 14.98331475 81247,6950.188,96.107,574.598,569.509,0.0
